LUR-1                   
1 60506U 24149AQ  26068.79566301  .00009121  00000+0  32985-3 0  9998
2 60506  97.3790 148.4255 0002777 309.1571  50.9421 15.28658648 86785
STARLINK-32625          
1 62154U 24224R   26068.27842535  .00036351  00000+0  13231-2 0  9999
2 62154  42.9968 160.7214 0001114 290.1455  69.9277 15.27602483 72302
